{
  "type": "FeatureCollection",
  "features": [
    {
      "type": "Feature",
      "properties": {
        "norad_id": 41581,
        "name": "INTELSAT 31 (IS-31)",
        "group": "intelsat",
        "lat": -0.022198256620233812,
        "lon": -115.29247570657543,
        "alt_km": 35779.319961638364,
        "timestamp": "2025-12-03T17:47:50.380152+00:00",
        "meta_object_name": "INTELSAT 31 (IS-31)",
        "meta_object_id": "2016-035A",
        "meta_epoch": "2025-12-02T09:32:38.891904",
        "meta_mean_motion": 1.00269687,
        "meta_eccentricity": 0.00019053,
        "meta_inclination": 0.0144,
        "meta_ra_of_asc_node": 272.373,
        "meta_arg_of_pericenter": 308.7593,
        "meta_mean_anomaly": 258.4788,
        "meta_ephemeris_type": 0,
        "meta_classification_type": "U",
        "meta_norad_cat_id": 41581,
        "meta_element_set_no": 999,
        "meta_rev_at_epoch": 3471,
        "meta_bstar": 0,
        "meta_mean_motion_dot": -1.3e-06,
        "meta_mean_motion_ddot": 0,
        "tle_line1": "1 41581U 16035A   25336.39767236 -.00000130  00000+0  00000+0 0  9999",
        "tle_line2": "2 41581   0.0144 272.3730 0001905 308.7593 258.4788  1.00269687 34710"
      },
      "geometry": {
        "type": "Point",
        "coordinates": [
          -115.29247570657543,
          -0.022198256620233812
        ]
      }
    },
    {
      "type": "Feature",
      "properties": {
        "norad_id": 41747,
        "name": "INTELSAT 36 (IS-36)",
        "group": "intelsat",
        "lat": 0.03306431917724734,
        "lon": 48.28443740827275,
        "alt_km": 35786.47079596881,
        "timestamp": "2025-12-03T17:47:50.380163+00:00",
        "meta_object_name": "INTELSAT 36 (IS-36)",
        "meta_object_id": "2016-053A",
        "meta_epoch": "2025-12-03T00:23:05.477568",
        "meta_mean_motion": 1.00270226,
        "meta_eccentricity": 0.00013731,
        "meta_inclination": 0.0123,
        "meta_ra_of_asc_node": 348.519,
        "meta_arg_of_pericenter": 330.1213,
        "meta_mean_anomaly": 187.7546,
        "meta_ephemeris_type": 0,
        "meta_classification_type": "U",
        "meta_norad_cat_id": 41747,
        "meta_element_set_no": 999,
        "meta_rev_at_epoch": 3398,
        "meta_bstar": 0,
        "meta_mean_motion_dot": -5e-08,
        "meta_mean_motion_ddot": 0,
        "tle_line1": "1 41747U 16053A   25337.01603562 -.00000005  00000+0  00000+0 0  9995",
        "tle_line2": "2 41747   0.0123 348.5190 0001373 330.1213 187.7546  1.00270226 33989"
      },
      "geometry": {
        "type": "Point",
        "coordinates": [
          48.28443740827275,
          0.03306431917724734
        ]
      }
    },
    {
      "type": "Feature",
      "properties": {
        "norad_id": 41945,
        "name": "INTELSAT 32E (IS-32E)",
        "group": "intelsat",
        "lat": -0.019603808564684227,
        "lon": -63.41258482577275,
        "alt_km": 35786.264918071916,
        "timestamp": "2025-12-03T17:47:50.380175+00:00",
        "meta_object_name": "INTELSAT 32E (IS-32E)",
        "meta_object_id": "2017-007B",
        "meta_epoch": "2025-12-03T08:24:51.420096",
        "meta_mean_motion": 1.00269596,
        "meta_eccentricity": 1.84e-05,
        "meta_inclination": 0.029,
        "meta_ra_of_asc_node": 67.4316,
        "meta_arg_of_pericenter": 280.9577,
        "meta_mean_anomaly": 167.0963,
        "meta_ephemeris_type": 0,
        "meta_classification_type": "U",
        "meta_norad_cat_id": 41945,
        "meta_element_set_no": 999,
        "meta_rev_at_epoch": 3226,
        "meta_bstar": 0,
        "meta_mean_motion_dot": -2.5e-06,
        "meta_mean_motion_ddot": 0,
        "tle_line1": "1 41945U 17007B   25337.35059514 -.00000250  00000+0  00000+0 0  9996",
        "tle_line2": "2 41945   0.0290  67.4316 0000184 280.9577 167.0963  1.00269596 32267"
      },
      "geometry": {
        "type": "Point",
        "coordinates": [
          -63.41258482577275,
          -0.019603808564684227
        ]
      }
    },
    {
      "type": "Feature",
      "properties": {
        "norad_id": 42818,
        "name": "INTELSAT 35E (IS-35E)",
        "group": "intelsat",
        "lat": -0.013143857098926914,
        "lon": -54.695514865714756,
        "alt_km": 35780.1891639322,
        "timestamp": "2025-12-03T17:47:50.380188+00:00",
        "meta_object_name": "INTELSAT 35E (IS-35E)",
        "meta_object_id": "2017-041A",
        "meta_epoch": "2025-12-03T08:27:21.179808",
        "meta_mean_motion": 1.00270876,
        "meta_eccentricity": 0.0002333,
        "meta_inclination": 0.0186,
        "meta_ra_of_asc_node": 325.4746,
        "meta_arg_of_pericenter": 288.58,
        "meta_mean_anomaly": 270.7495,
        "meta_ephemeris_type": 0,
        "meta_classification_type": "U",
        "meta_norad_cat_id": 42818,
        "meta_element_set_no": 999,
        "meta_rev_at_epoch": 3085,
        "meta_bstar": 0,
        "meta_mean_motion_dot": -2.19e-06,
        "meta_mean_motion_ddot": 0,
        "tle_line1": "1 42818U 17041A   25337.35232847 -.00000219  00000+0  00000+0 0  9991",
        "tle_line2": "2 42818   0.0186 325.4746 0002333 288.5800 270.7495  1.00270876 30854"
      },
      "geometry": {
        "type": "Point",
        "coordinates": [
          -54.695514865714756,
          -0.013143857098926914
        ]
      }
    },
    {
      "type": "Feature",
      "properties": {
        "norad_id": 42950,
        "name": "INTELSAT 37E (IS-37E)",
        "group": "intelsat",
        "lat": 0.005315438998869777,
        "lon": -38.1931191161275,
        "alt_km": 35782.617383881974,
        "timestamp": "2025-12-03T17:47:50.380200+00:00",
        "meta_object_name": "INTELSAT 37E (IS-37E)",
        "meta_object_id": "2017-059A",
        "meta_epoch": "2025-12-03T06:59:39.629760",
        "meta_mean_motion": 1.00270828,
        "meta_eccentricity": 0.0003434,
        "meta_inclination": 0.0159,
        "meta_ra_of_asc_node": 312.1581,
        "meta_arg_of_pericenter": 294.5147,
        "meta_mean_anomaly": 272.6335,
        "meta_ephemeris_type": 0,
        "meta_classification_type": "U",
        "meta_norad_cat_id": 42950,
        "meta_element_set_no": 999,
        "meta_rev_at_epoch": 3010,
        "meta_bstar": 0,
        "meta_mean_motion_dot": -1.22e-06,
        "meta_mean_motion_ddot": 0,
        "tle_line1": "1 42950U 17059A   25337.29143090 -.00000122  00000+0  00000+0 0  9994",
        "tle_line2": "2 42950   0.0159 312.1581 0003434 294.5147 272.6335  1.00270828 30104"
      },
      "geometry": {
        "type": "Point",
        "coordinates": [
          -38.1931191161275,
          0.005315438998869777
        ]
      }
    },
    {
      "type": "Feature",
      "properties": {
        "norad_id": 43632,
        "name": "AZERSPACE 2 (IS-38)",
        "group": "intelsat",
        "lat": 0.03253782670947988,
        "lon": 24.889155213722226,
        "alt_km": 35790.71285385795,
        "timestamp": "2025-12-03T17:47:50.380212+00:00",
        "meta_object_name": "AZERSPACE 2 (IS-38)",
        "meta_object_id": "2018-074A",
        "meta_epoch": "2025-12-03T01:59:05.629920",
        "meta_mean_motion": 1.00271401,
        "meta_eccentricity": 0.00016897,
        "meta_inclination": 0.0147,
        "meta_ra_of_asc_node": 335.5882,
        "meta_arg_of_pericenter": 279.2754,
        "meta_mean_anomaly": 252.1998,
        "meta_ephemeris_type": 0,
        "meta_classification_type": "U",
        "meta_norad_cat_id": 43632,
        "meta_element_set_no": 999,
        "meta_rev_at_epoch": 2648,
        "meta_bstar": 0,
        "meta_mean_motion_dot": 1.56e-06,
        "meta_mean_motion_ddot": 0,
        "tle_line1": "1 43632U 18074A   25337.08270405  .00000156  00000+0  00000+0 0  9994",
        "tle_line2": "2 43632   0.0147 335.5882 0001689 279.2754 252.1998  1.00271401 26488"
      },
      "geometry": {
        "type": "Point",
        "coordinates": [
          24.889155213722226,
          0.03253782670947988
        ]
      }
    },
    {
      "type": "Feature",
      "properties": {
        "norad_id": 43633,
        "name": "HORIZONS-3E",
        "group": "intelsat",
        "lat": -0.016257994114693947,
        "lon": 148.7705162016984,
        "alt_km": 35790.44620980834,
        "timestamp": "2025-12-03T17:47:50.380224+00:00",
        "meta_object_name": "HORIZONS-3E",
        "meta_object_id": "2018-074B",
        "meta_epoch": "2025-12-02T09:32:38.562720",
        "meta_mean_motion": 1.00268601,
        "meta_eccentricity": 0.00010808,
        "meta_inclination": 0.0303,
        "meta_ra_of_asc_node": 208.778,
        "meta_arg_of_pericenter": 80.6678,
        "meta_mean_anomaly": 94.2479,
        "meta_ephemeris_type": 0,
        "meta_classification_type": "U",
        "meta_norad_cat_id": 43633,
        "meta_element_set_no": 999,
        "meta_rev_at_epoch": 2636,
        "meta_bstar": 0,
        "meta_mean_motion_dot": -1e-07,
        "meta_mean_motion_ddot": 0,
        "tle_line1": "1 43633U 18074B   25336.39766855 -.00000010  00000+0  00000+0 0  9997",
        "tle_line2": "2 43633   0.0303 208.7780 0001080  80.6678  94.2479  1.00268601 26369"
      },
      "geometry": {
        "type": "Point",
        "coordinates": [
          148.7705162016984,
          -0.016257994114693947
        ]
      }
    }
  ]
}